NORAD_CAT_ID,OBJECT_NAME,OBJECT_TYPE,EPOCH,MEAN_MOTION,ECCENTRICITY,INCLINATION,RA_OF_ASC_NODE,ARG_OF_PERICENTER,MEAN_ANOMALY,BSTAR,MEAN_MOTION_DOT,MEAN_MOTION_DDOT,TLE_LINE0,TLE_LINE1,TLE_LINE2,SEMIMAJOR_AXIS,PERIOD,APOGEE,PERIGEE,DECAYED
52838.0,STARLINK-4092,PAYLOAD,2024-03-31 09:05:26,15.08841065,0.0001271,53.2182,333.8427,83.5388,276.5749,8.5419e-05,1.072e-05,0.0,0 STARLINK-4092,1 52838U 22062J   24091.37878342  .00001072  00000-0  85419-4 0  9997,2 52838  53.2182 333.8427 0001271  83.5388 276.5749 15.08841065 99348,6917.877,95.437,540.621,538.863,0.0
52838.0,STARLINK-4092,PAYLOAD,2024-03-31 21:48:31,15.08843926,0.0001298,53.2187,331.4641,87.8507,272.2634,2.7869e-05,1.56e-06,0.0,0 STARLINK-4092,1 52838U 22062J   24091.90870262  .00000156  00000-0  27869-4 0  9996,2 52838  53.2187 331.4641 0001298  87.8507 272.2634 15.08843926 98932,6917.868,95.437,540.631,538.835,0.0
52838.0,STARLINK-4092,PAYLOAD,2024-04-01 08:56:14,15.08840817,0.00016,53.2177,329.3817,88.7083,271.4092,3.3757e-06,-2.34e-06,0.0,0 STARLINK-4092,1 52838U 22062J   24092.37238499 -.00000234  00000-0  33757-5 0  9990,2 52838  53.2177 329.3817 0001600  88.7083 271.4092 15.08840817 99002,6917.878,95.438,540.85,538.636,0.0
52838.0,STARLINK-4092,PAYLOAD,2024-04-01 20:03:56,15.08837308,0.0001333,53.2169,327.3002,88.3703,271.7441,0.00017095,2.434e-05,0.0,0 STARLINK-4092,1 52838U 22062J   24092.83606744  .00002434  00000-0  17095-3 0  9991,2 52838  53.2169 327.3002 0001333  88.3703 271.7441 15.08837308 99568,6917.889,95.438,540.676,538.831,0.0
52838.0,STARLINK-4092,PAYLOAD,2024-04-02 08:47:01,15.08841527,0.0001262,53.2178,324.9206,85.793,274.3206,9.7559e-05,1.265e-05,0.0,0 STARLINK-4092,1 52838U 22062J   24093.36598555  .00001265  00000-0  97559-4 0  9995,2 52838  53.2178 324.9206 0001262  85.7930 274.3206 15.08841527 99152,6917.876,95.437,540.614,538.868,0.0
52838.0,STARLINK-4092,PAYLOAD,2024-04-02 21:30:06,15.08842399,0.0001273,53.2183,322.5419,75.8215,284.2919,3.8118e-05,3.19e-06,0.0,0 STARLINK-4092,1 52838U 22062J   24093.89590858  .00000319  00000-0  38118-4 0  9996,2 52838  53.2183 322.5419 0001273  75.8215 284.2919 15.08842399 99234,6917.873,95.437,540.619,538.857,0.0
52838.0,STARLINK-4092,PAYLOAD,2024-04-03 08:37:47,15.0884829,0.0001237,53.2185,320.4616,90.3633,269.7501,4.336e-05,4.02e-06,0.0,0 STARLINK-4092,1 52838U 22062J   24094.35958292  .00000402  00000-0  43360-4 0  9996,2 52838  53.2185 320.4616 0001237  90.3633 269.7501 15.08848290 99307,6917.855,95.437,540.576,538.864,0.0
52838.0,STARLINK-4092,PAYLOAD,2024-04-03 21:20:53,15.08844041,0.000114,53.2181,318.0814,98.4306,261.6815,0.00014,1.941e-05,0.0,0 STARLINK-4092,1 52838U 22062J   24094.88950295  .00001941  00000-0  14000-3 0  9996,2 52838  53.2181 318.0814 0001140  98.4306 261.6815 15.08844041 99382,6917.868,95.437,540.522,538.944,0.0
52838.0,STARLINK-4092,PAYLOAD,2024-04-04 00:31:39,15.08848344,0.0001246,53.2182,317.4864,98.3709,261.7424,7.8966e-05,9.69e-06,0.0,0 STARLINK-4092,1 52838U 22062J   24095.02198151  .00000969  00000-0  78966-4 0  9999,2 52838  53.2182 317.4864 0001246  98.3709 261.7424 15.08848344 99897,6917.855,95.437,540.582,538.858,0.0
52838.0,STARLINK-4092,PAYLOAD,2024-04-04 21:11:40,15.08838654,0.0001181,53.2177,313.6225,85.3309,274.7818,9.0706e-05,1.156e-05,0.0,0 STARLINK-4092,1 52838U 22062J   24095.88310839  .00001156  00000-0  90706-4 0  9997,2 52838  53.2177 313.6225 0001181  85.3309 274.7818 15.08838654100022,6917.885,95.438,540.567,538.933,0.0
52838.0,STARLINK-4092,PAYLOAD,2024-04-05 14:40:54,15.08842906,0.0001132,53.218,310.3517,85.0044,275.1077,0.00011476,1.539e-05,0.0,0 STARLINK-4092,1 52838U 22062J   24096.61174389  .00001539  00000-0  11476-3 0  9998,2 52838  53.2180 310.3517 0001132  85.0044 275.1077 15.08842906 99645,6917.872,95.437,540.52,538.953,0.0
52838.0,STARLINK-4092,PAYLOAD,2024-04-05 21:02:26,15.0884841,0.0001128,53.2177,309.1619,85.6386,274.4735,0.00015744,2.219e-05,0.0,0 STARLINK-4092,1 52838U 22062J   24096.87669907  .00002219  00000-0  15744-3 0  9999,2 52838  53.2177 309.1619 0001128  85.6386 274.4735 15.08848410100170,6917.855,95.437,540.5,538.939,0.0
52838.0,STARLINK-4092,PAYLOAD,2024-04-06 06:34:45,15.08844447,0.0001121,53.2165,307.3776,84.8061,275.3059,2.9806e-05,1.87e-06,0.0,0 STARLINK-4092,1 52838U 22062J   24097.27414236  .00000187  00000-0  29806-4 0  9994,2 52838  53.2165 307.3776 0001121  84.8061 275.3059 15.08844447100237,6917.867,95.437,540.507,538.956,0.0
52838.0,STARLINK-4092,PAYLOAD,2024-04-06 14:31:42,15.08838579,0.0001325,53.2188,305.8931,88.4565,271.6578,5.631e-05,6.08e-06,0.0,0 STARLINK-4092,1 52838U 22062J   24097.60534849  .00000608  00000-0  56310-4 0  9992,2 52838  53.2188 305.8931 0001325  88.4565 271.6578 15.08838579 99795,6917.885,95.438,540.666,538.833,0.0
52838.0,STARLINK-4092,PAYLOAD,2024-04-07 00:04:00,15.0884073,0.0001318,53.2187,304.1091,88.0534,272.0609,6.2465e-05,7.06e-06,0.0,0 STARLINK-4092,1 52838U 22062J   24098.00278672  .00000706  00000-0  62465-4 0  9993,2 52838  53.2187 304.1091 0001318  88.0534 272.0609 15.08840730 99856,6917.878,95.438,540.655,538.831,0.0
52838.0,STARLINK-4092,PAYLOAD,2024-04-07 20:44:02,15.08835694,0.0001236,53.2185,300.2419,89.422,270.6914,-2.3461e-05,-6.61e-06,0.0,0 STARLINK-4092,1 52838U 22062J   24098.86391416 -.00000661  00000-0 -23461-4 0  9994,2 52838  53.2185 300.2419 0001236  89.4220 270.6914 15.08835694100478,6917.894,95.438,540.614,538.903,0.0
52838.0,STARLINK-4092,PAYLOAD,2024-04-08 12:37:53,15.08837539,0.000127,53.2194,297.2674,93.7254,266.3884,0.00010854,1.44e-05,0.0,0 STARLINK-4092,1 52838U 22062J   24099.52631207  .00001440  00000-0  10854-3 0  9998,2 52838  53.2194 297.2674 0001270  93.7254 266.3884 15.08837539100084,6917.888,95.438,540.631,538.874,0.0
52838.0,STARLINK-4092,PAYLOAD,2024-04-08 22:10:11,15.08861562,0.0001175,53.2183,295.4833,83.4254,276.6872,-9.1668e-05,-1.747e-05,0.0,0 STARLINK-4092,1 52838U 22062J   24099.92373945 -.00001747  00000-0 -91668-4 0  9999,2 52838  53.2183 295.4833 0001175  83.4254 276.6872 15.08861562100140,6917.814,95.436,540.492,538.867,0.0
52838.0,STARLINK-4092,PAYLOAD,2024-04-09 06:07:08,15.08834879,0.0001465,53.2156,293.9944,83.911,276.2049,0.0001293,1.77e-05,0.0,0 STARLINK-4092,1 52838U 22062J   24100.25495401  .00001770  00000-0  12930-3 0  9998,2 52838  53.2156 293.9944 0001465  83.9110 276.2049 15.08834879100686,6917.896,95.438,540.775,538.748,0.0
52838.0,STARLINK-4092,PAYLOAD,2024-04-09 22:00:59,15.08838988,0.0001322,53.2174,291.0232,81.901,278.2132,9.4171e-05,1.211e-05,0.0,0 STARLINK-4092,1 52838U 22062J   24100.91735425  .00001211  00000-0  94171-4 0  9992,2 52838  53.2174 291.0232 0001322  81.9010 278.2132 15.08838988100291,6917.883,95.438,540.663,538.834,0.0
52838.0,STARLINK-4092,PAYLOAD,2024-04-10 12:19:27,15.08846672,0.0001368,53.2159,288.3456,78.001,282.1136,5.7651e-05,6.3e-06,0.0,0 STARLINK-4092,1 52838U 22062J   24101.51350961  .00000630  00000-0  57651-4 0  9993,2 52838  53.2159 288.3456 0001368  78.0010 282.1136 15.08846672100879,6917.86,95.437,540.671,538.779,0.0
52838.0,STARLINK-4092,PAYLOAD,2024-04-10 18:40:59,15.08849579,0.0001346,53.2146,287.156,78.0344,282.0799,7.7143e-05,9.4e-06,0.0,0 STARLINK-4092,1 52838U 22062J   24101.77846569  .00000940  00000-0  77143-4 0  9997,2 52838  53.2146 287.1560 0001346  78.0344 282.0799 15.08849579100428,6917.851,95.437,540.647,538.785,0.0
52838.0,STARLINK-4092,PAYLOAD,2024-04-11 12:10:14,15.08838533,0.0001437,53.2199,283.886,83.5321,276.5834,6.4985e-05,7.46e-06,0.0,0 STARLINK-4092,1 52838U 22062J   24102.50711387  .00000746  00000-0  64985-4 0  9992,2 52838  53.2199 283.8860 0001437  83.5321 276.5834 15.08838533101022,6917.885,95.438,540.744,538.756,0.0
52838.0,STARLINK-4092,PAYLOAD,2024-04-11 18:31:47,15.0883598,0.0001298,53.2176,282.6952,83.7451,276.3689,2.9763e-05,1.86e-06,0.0,0 STARLINK-4092,1 52838U 22062J   24102.77207569  .00000186  00000-0  29763-4 0  9996,2 52838  53.2176 282.6952 0001298  83.7451 276.3689 15.08835980100575,6917.893,95.438,540.656,538.86,0.0
52838.0,STARLINK-4092,PAYLOAD,2024-04-12 12:01:01,15.08843501,0.0001328,53.2181,279.4247,88.7696,271.3449,6.8486e-06,-1.79e-06,0.0,0 STARLINK-4092,1 52838U 22062J   24103.50071235 -.00000179  00000-0  68486-5 0  9996,2 52838  53.2181 279.4247 0001328  88.7696 271.3449 15.08843501100681,6917.87,95.437,540.653,538.816,0.0
52838.0,STARLINK-4092,PAYLOAD,2024-04-12 15:11:47,15.0884427,0.0001322,53.2179,278.8301,87.9187,272.1956,1.2927e-05,-8.2e-07,0.0,0 STARLINK-4092,1 52838U 22062J   24103.63319121 -.00000082  00000-0  12927-4 0  9990,2 52838  53.2179 278.8301 0001322  87.9187 272.1956 15.08844270101195,6917.867,95.437,540.647,538.818,0.0
52838.0,STARLINK-4092,PAYLOAD,2024-04-13 11:51:48,15.08834214,0.0001306,53.2177,274.9649,86.4135,273.7006,8.6235e-05,1.085e-05,0.0,0 STARLINK-4092,1 52838U 22062J   24104.49431707  .00001085  00000-0  86235-4 0  9996,2 52838  53.2177 274.9649 0001306  86.4135 273.7006 15.08834214101329,6917.898,95.438,540.667,538.86,0.0
52838.0,STARLINK-4092,PAYLOAD,2024-04-13 18:13:21,15.088389,0.0001251,53.2173,273.7747,84.0878,276.0256,8.1481e-05,1.009e-05,0.0,0 STARLINK-4092,1 52838U 22062J   24104.75927517  .00001009  00000-0  81481-4 0  9998,2 52838  53.2173 273.7747 0001251  84.0878 276.0256 15.08838900100876,6917.884,95.438,540.614,538.883,0.0
52838.0,STARLINK-4092,PAYLOAD,2024-04-14 18:04:08,15.08842343,0.0001428,53.2183,269.3151,100.0102,260.1051,9.7365e-05,1.262e-05,0.0,0 STARLINK-4092,1 52838U 22062J   24105.75287447  .00001262  00000-0  97365-4 0  9999,2 52838  53.2183 269.3151 0001428 100.0102 260.1051 15.08842343101517,6917.873,95.437,540.726,538.75,0.0
52838.0,STARLINK-4092,PAYLOAD,2024-04-15 19:30:18,15.08846883,0.0001434,53.2186,264.5566,97.8351,262.2804,0.00012909,1.767e-05,0.0,0 STARLINK-4092,1 52838U 22062J   24106.81271053  .00001767  00000-0  12909-3 0  9993,2 52838  53.2186 264.5566 0001434  97.8351 262.2804 15.08846883101672,6917.859,95.437,540.716,538.732,0.0
